STARLINK-34906          
1 65896U 25224Q   25296.91671296 -.00054972  00000+0 -37408-3 0  9997
2 65896  53.1543 290.0231 0000679 103.8359 349.7086 15.74153946  3897
STARLINK-34934          
1 65897U 25224R   25296.91671296 -.00041333  00000+0 -27909-3 0  9990
2 65897  53.1560 290.0111 0001116  93.3767   5.7913 15.74206322  3858
STARLINK-34936          
1 65898U 25224S   25296.91671296 -.00051111  00000+0 -34654-3 0  9991
2 65898  53.1561 290.0147 0001243  93.3079   3.9519 15.74205774  3892
STARLINK-35272          
1 65899U 25224T   25296.91671296 -.00054341  00000+0 -36889-3 0  9992
2 65899  53.1549 290.0073 0001185  97.0468   4.0488 15.74203739  3891
STARLINK-35264          
1 65900U 25224U   25296.91671296  .00001235  00000+0  12735-4 0  9992
2 65900  53.1578 290.0025 0001346 107.1364 355.8593 15.74183291  3894
STARLINK-35249          
1 65901U 25224V   25296.91671296 -.00066083  00000+0 -44980-3 0  9993
2 65901  53.1581 289.9992 0001033  91.8853  13.0328 15.74222414  3883
STARLINK-35278          
1 65902U 25224W   25296.91671296  .00016478  00000+0  11654-3 0  9997
2 65902  53.1580 289.9868 0001286 104.0933   6.5531 15.74197990  3907
STARLINK-35210          
1 65903U 25224X   25296.91671296  .00028154  00000+0  19599-3 0  9998
2 65903  53.1578 289.9909 0000725  92.8367  15.9090 15.74176229  3886
STARLINK-35348          
1 65904U 25224Y   25296.91671296 -.00000221  00000+0  27827-5 0  9990
2 65904  53.1581 289.9954 0000993 103.6422   3.1865 15.74186233  3853
STARLINK-35380          
1 65905U 25224Z   25296.91671296  .00030286  00000+0  21047-3 0  9990
2 65905  53.1579 289.9841 0001193  97.0884  15.4950 15.74174729  3855
STARLINK-35385          
1 65906U 25224AA  25296.91671296 -.00013737  00000+0 -89539-4 0  9996
2 65906  53.1578 289.9754 0001303  96.3219  20.0780 15.74215436  3882
STARLINK-35347          
1 65907U 25224AB  25296.91671296  .00084510  00000+0  57680-3 0  9993
2 65907  53.1560 289.9701 0001290 114.7056   3.6390 15.74138259  3886
STARLINK-35329          
1 65908U 25224AC  25296.91671296  .00044998  00000+0  31008-3 0  9996
2 65908  53.1580 289.9786 0001205 101.1405  13.3523 15.74174902  3898
STARLINK-35387          
1 65909U 25224AD  25296.91671296  .00054434  00000+0  37404-3 0  9999
2 65909  53.1577 289.9662 0000973  94.3779  25.8712 15.74159236  3853
STARLINK-35523          
1 65910U 25225A   25296.87020336  .00149828  00000+0  10075-2 0  9996
2 65910  53.1601  85.9683 0000927 111.8900 248.2218 15.74227330  3392
STARLINK-35160          
1 65911U 25225B   25296.93335252  .00189599  00000+0  12666-2 0  9997
2 65911  53.1598  85.6511 0001150  66.6860 293.4281 15.74250312  3406
STARLINK-35508          
1 65912U 25225C   25296.86952498  .00227875  00000+0  15139-2 0  9995
2 65912  53.1600  85.9625 0000940  70.7367 289.3755 15.74259103  3399
STARLINK-35472          
1 65913U 25225D   25296.93267719  .00199893  00000+0  13335-2 0  9993
2 65913  53.1600  85.6442 0000974  89.7473 270.3658 15.74249735  3403
STARLINK-35524          
1 65914U 25225E   25296.04349894  .00251495  00000+0  16645-2 0  9995
2 65914  53.1584  90.0547 0000623  90.8037 269.3055 15.74275199  3267
STARLINK-35539          
1 65915U 25225F   25296.93200291  .00233401  00000+0  15499-2 0  9994
2 65915  53.1597  85.6399 0001346  66.8513 293.2648 15.74253129  3401
STARLINK-35521          
1 65916U 25225G   25296.86817028  .00274314  00000+0  18098-2 0  9995
2 65916  53.1591  85.9520 0001137 158.9599 201.1468 15.74280794  3394
STARLINK-35478          
1 65917U 25225H   25296.86749759  .00147232  00000+0  99050-3 0  9997
2 65917  53.1599  85.9474 0000943 130.7077 229.4025 15.74226671  3390
STARLINK-35516          
1 65918U 25225J   25296.86783604  .00161165  00000+0  10825-2 0  9998
2 65918  53.1590  85.9504 0001323 134.8142 225.2986 15.74216159  3397
STARLINK-35519          
1 65919U 25225K   25296.86716082  .00191709  00000+0  12807-2 0  9994
2 65919  53.1594  85.9464 0000645  88.3651 271.7443 15.74243130  3394
STARLINK-33902          
1 65920U 25225L   25296.80333487  .00199007  00000+0  13299-2 0  9999
2 65920  53.1603  86.2590 0001723  94.6320 265.4897 15.74212689  3389
STARLINK-35530          
1 65921U 25225M   25296.92997279  .00334317  00000+0  21933-2 0  9997
2 65921  53.1596  85.6280 0001459 105.5817 254.5364 15.74234659  3401
STARLINK-35544          
1 65922U 25225N   25296.86614591  .00189493  00000+0  12661-2 0  9995
2 65922  53.1599  85.9393 0000781  88.3263 271.7847 15.74245941  3394
STARLINK-35484          
1 65923U 25225P   25296.86580917  .00157080  00000+0  10552-2 0  9994
2 65923  53.1601  85.9366 0000851 104.6710 255.4404 15.74227376  3396
STARLINK-34994          
1 65924U 25225Q   25296.86547249  .00183735  00000+0  12296-2 0  9999
2 65924  53.1593  85.9355 0001245  78.4394 281.6765 15.74228442  3395
STARLINK-35458          
1 65925U 25225R   25296.86479606  .00175296  00000+0  11743-2 0  9990
2 65925  53.1596  85.9302 0001164  80.6161 279.4990 15.74230803  3397
STARLINK-35492          
1 65926U 25225S   25296.67466808  .00238120  00000+0  15795-2 0  9997
2 65926  53.1595  86.8777 0001406  48.8935 311.2206 15.74263833  3368
STARLINK-35494          
1 65927U 25225T   25296.86445603  .00194805  00000+0  13009-2 0  9996
2 65927  53.1603  85.9267 0000834 103.8798 256.2315 15.74242783  3399
STARLINK-35493          
1 65928U 25225U   25296.86378201  .00124486  00000+0  84077-3 0  9998
2 65928  53.1606  85.9219 0001001  93.7323 266.3812 15.74216808  3391
STARLINK-35175          
1 65929U 25225V   25296.86345343  .00244275  00000+0  16205-2 0  9996
2 65929  53.1587  85.9215 0003621  46.7849 313.3473 15.74240294  3399
STARLINK-35513          
1 65930U 25225W   25296.86411734  .00189924  00000+0  12688-2 0  9996
2 65930  53.1598  85.9245 0000987  89.6566 270.4567 15.74247893  3399
STARLINK-35526          
1 65931U 25225X   25296.86310311  .00169904  00000+0  11389-2 0  9999
2 65931  53.1600  85.9174 0001055  88.1557 271.9583 15.74235509  3391
STARLINK-35436          
1 65932U 25225Y   25296.86276543  .00336162  00000+0  22015-2 0  9998
2 65932  53.1591  85.9161 0001747  73.5898 286.5314 15.74270883  3399
STARLINK-35192          
1 65933U 25225Z   25296.92524003  .00257658  00000+0  17046-2 0  9993
2 65933  53.1597  85.5929 0000980  55.4579 304.6534 15.74266052  3408
STARLINK-33921          
1 65934U 25225AA  25296.86242648  .00221111  00000+0  14702-2 0  9990
2 65934  53.1594  85.9144 0000427 121.0490 239.0572 15.74259635  2509
STARLINK-35155          
1 65935U 25225AB  25296.86209066  .00163629  00000+0  10978-2 0  9998
2 65935  53.1602  85.9117 0000979  87.1636 272.9496 15.74235508  2500
STARLINK-35161          
1 65936U 25225AC  25296.67060637  .00386952  00000+0  22920-2 0  9993
2 65936  53.1597  86.8507 0009310 246.6516 113.3526 15.76392882  2473
STARLINK-35473          
1 65937U 25225AD  25296.92456280  .00288801  00000+0  19013-2 0  9998
2 65937  53.1588  85.5906 0001091  71.9767 288.1372 15.74287741  2518
2025-226A               
1 65938U 25226A   25296.91835990  .00010890  00000+0  64217-3 0  9996
2 65938  97.6672  11.0856 0014243 237.2718 122.7139 15.11659150  1948
2025-226B               
1 65939U 25226B   25296.93030002  .00006807  00000+0  42567-3 0  9997
2 65939  97.6634  11.0635 0020213 240.7754 119.1454 15.09590499  1931
2025-226C               
1 65940U 25226C   25296.91930487  .00010790  00000+0  63829-3 0  9993
2 65940  97.6582  11.0713 0014188 235.1026 124.8871 15.11548106  1933
YOTSUBA-KULOVER         
1 65941U 98067XN  25296.66933788  .00058617  00000+0  95139-3 0  9995
2 65941  51.6340  30.1856 0002336 287.7764  72.2971 15.52161597  2062
BOTAN                   
1 65942U 98067XP  25296.66722412  .00077490  00000+0  12293-2 0  9995
2 65942  51.6347  30.1724 0004028 316.8801  43.1873 15.52672525  2066
E-KAGAKU-1              
1 65943U 98067XQ  25296.66898221  .00058140  00000+0  94276-3 0  9991
2 65943  51.6345  30.1834 0003906 307.9385  52.1251 15.52186846  2065
2025-226D               
1 65944U 25226D   25290.94606692 -.00000071  00000+0  00000+0 0  9992
2 65944  97.6632   5.1263 0019022 287.2735  72.6416 15.16526485  1020
SHIYAN-31               
1 65945U 25227A   25296.92673312  .00008181  00000+0  37660-3 0  9996
2 65945  80.0026  88.0198 0011290 233.8574 126.1608 15.20165263  1608
CZ-2D R/B               
1 65946U 25227B   25296.94443174  .00011538  00000+0  42881-3 0  9991
2 65946  80.1538  88.2400 0021576   0.4974 359.6275 15.27212875  1619
KUIPER-00101            
1 65947U 25228A   25296.91671296  .00049404  00000+0  14599-2 0  9995
2 65947  51.8798 260.5697 0006198 172.3024 210.1236 15.34438552  2455
KUIPER-00113            
1 65948U 25228B   25296.91671296  .00049027  00000+0  14372-2 0  9996
2 65948  51.8802 260.5538 0006631 168.6481 222.9552 15.34691004  2559
KUIPER-00117            
1 65949U 25228C   25296.91671296  .00049811  00000+0  14620-2 0  9994
2 65949  51.8802 260.5565 0006434 168.7739 221.3892 15.34646743  2198
KUIPER-00121            
1 65950U 25228D   25296.91671296  .00052201  00000+0  15597-2 0  9997
2 65950  51.8807 260.6044 0006027 185.9287 182.2008 15.34065277  1533
KUIPER-00122            
1 65951U 25228E   25296.91671296  .00050027  00000+0  15023-2 0  9996
2 65951  51.8795 260.6078 0006383 192.0245 172.2983 15.33923902  1397
KUIPER-00123            
1 65952U 25228F   25296.91671296  .00048053  00000+0  14408-2 0  9999
2 65952  51.8793 260.5978 0005738 180.5656 187.8251 15.33992833  1305
KUIPER-00124            
1 65953U 25228G   25296.91671296  .00049183  00000+0  14792-2 0  9991
2 65953  51.8804 260.6142 0005930 194.9217 167.5358 15.33886579  1301
KUIPER-00125            
1 65954U 25228H   25296.91671296  .00050240  00000+0  14910-2 0  9990
2 65954  51.8795 260.5793 0006027 177.5503 199.7986 15.34296930  2611
